     2.100          NAVIGATION                              RINEX VERSION / TYPE
fic2rin                                 02/25/2009 01:31:29 PGM / RUN BY / DATE
                                                            END OF HEADER
10 09  2 24  8  0  0.0 -.116475857794D-04 -.568434188608D-12  .000000000000D+00
     .480000000000D+02 -.508750000000D+02  .462876423518D-08  .204878538750D+01
    -.265613198280D-05  .856510957237D-02  .837072730064D-05  .515379260635D+04
     .201600000000D+06 -.152736902237D-06  .230567490964D+01 -.130385160446D-07
     .959467556989D+00  .220218750000D+03  .598194960467D+00 -.808390815579D-08
    -.522521765129D-09  .100000000000D+01  .152000000000D+04  .000000000000D+00
     .240000000000D+01  .000000000000D+00 -.279396772385D-08  .480000000000D+02
     .194406000000D+06  .400000000000D+01
11 09  2 24  8  0  0.0  .654859468341D-05 -.125055521494D-11  .000000000000D+00
     .950000000000D+02  .586875000000D+02  .643133931967D-08 -.746682936124D+00
     .309944152832D-05  .920720037539D-02  .549107789993D-05  .515366871262D+04
     .201600000000D+06  .122934579849D-06  .102571627912D+01  .152736902237D-06
     .889706817666D+00  .233843750000D+03  .688491971163D+00 -.914716673050D-08
     .386087510666D-09  .100000000000D+01  .152000000000D+04  .000000000000D+00
     .240000000000D+01  .000000000000D+00 -.121071934700D-07  .950000000000D+02
     .194406000000D+06  .400000000000D+01
12 09  2 24  8  0  0.0 -.312811229378D-03  .397903932026D-11  .000000000000D+00
     .450000000000D+02 -.109187500000D+03  .461412076808D-08 -.429655111946D+00
    -.556185841560D-05  .324768433347D-02  .652484595776D-05  .515371397209D+04
     .201600000000D+06 -.372529029846D-08 -.856184313205D+00 -.149011611938D-07
     .966145327442D+00  .259500000000D+03 -.806762624879D+00 -.827355891265D-08
    -.417517391275D-09  .100000000000D+01  .152000000000D+04  .000000000000D+00
     .240000000000D+01  .000000000000D+00 -.116415321827D-07  .450000000000D+02
     .194406000000D+06  .400000000000D+01
13 09  2 24  8  0  0.0  .289599411190D-03  .125055521494D-11  .000000000000D+00
     .108000000000D+03  .710312500000D+02  .343014287922D-08  .187629158154D+01
     .372529029846D-05  .382617476862D-02  .118501484394D-04  .515375334930D+04
     .201600000000D+06  .335276126862D-07 -.290046292116D+01 -.838190317154D-07
     .995530807831D+00  .168875000000D+03  .150873556608D+01 -.742816655581D-08
     .203579908492D-09  .100000000000D+01  .152000000000D+04  .000000000000D+00
     .340000000000D+01  .000000000000D+00 -.111758708954D-07  .108000000000D+03
     .194406000000D+06  .400000000000D+01
14 09  2 24  8  0  0.0 -.149734783918D-03  .545696821064D-11  .000000000000D+00
     .740000000000D+02  .790937500000D+02  .360943606179D-08  .150999547648D+01
     .417605042458D-05  .437966967002D-02  .121928751469D-04  .515358334160D+04
     .201600000000D+06 -.130385160446D-06 -.291937861138D+01  .372529029846D-08
     .989098689119D+00  .154718750000D+03 -.210559955490D+01 -.760745973838D-08
     .209294432239D-09  .100000000000D+01  .152000000000D+04  .000000000000D+00
     .240000000000D+01  .000000000000D+00 -.931322574615D-08  .740000000000D+02
     .194406000000D+06  .400000000000D+01
15 09  2 24  8  0  0.0 -.260936561972D-03 -.511590769747D-11  .000000000000D+00
     .590000000000D+02  .760937500000D+02  .432732310752D-08  .193361182059D+01
     .390969216824D-05  .141968287062D-02  .115931034088D-04  .515359119225D+04
     .201600000000D+06  .353902578354D-07 -.296890447410D+01 -.931322574615D-08
     .957210770322D+00  .153218750000D+03 -.666316185555D+00 -.789247161027D-08
     .882179603464D-10  .100000000000D+01  .152000000000D+04  .000000000000D+00
     .240000000000D+01  .000000000000D+00 -.977888703346D-08  .590000000000D+02
     .194406000000D+06  .400000000000D+01
16 09  2 24  8  0  0.0  .722841359675D-04 -.284217094304D-11  .000000000000D+00
     .740000000000D+02 -.113187500000D+03  .453233164695D-08 -.294826508895D+01
    -.579468905926D-05  .510948384181D-02  .596605241299D-05  .515377258110D+04
     .201600000000D+06 -.242143869400D-07 -.839376234429D+00  .540167093277D-07
     .967673131790D+00  .269437500000D+03 -.386881795271D+00 -.811819529828D-08
    -.453233164695D-09  .100000000000D+01  .152000000000D+04  .000000000000D+00
     .240000000000D+01  .000000000000D+00 -.977888703346D-08  .740000000000D+02
     .194406000000D+06  .400000000000D+01
17 09  2 24  8  0  0.0  .480609014630D-04  .125055521494D-11  .000000000000D+00
     .320000000000D+02 -.843750000000D+01  .420624663563D-08  .224413698854D+01
    -.471249222755D-06  .426636473276D-02  .123195350170D-04  .515365470695D+04
     .201600000000D+06 -.104308128357D-06  .202285168572D+00 -.260770320892D-07
     .960201450325D+00  .143562500000D+03 -.272913985782D+01 -.780853954273D-08
     .198936857947D-09  .100000000000D+01  .152000000000D+04  .000000000000D+00
     .240000000000D+01  .000000000000D+00 -.102445483208D-07  .320000000000D+02
     .194406000000D+06  .400000000000D+01
18 09  2 24  8  0  0.0 -.804471783340D-04  .352429196937D-11  .000000000000D+00
     .600000000000D+02 -.533437500000D+02  .485984528921D-08 -.282106558935D+01
    -.281818211079D-05  .995575136039D-02  .835768878460D-05  .515375457001D+04
     .201600000000D+06  .316649675369D-07  .231251674051D+01 -.134110450745D-06
     .943527500656D+00  .209406250000D+03 -.243628281380D+01 -.807497921244D-08
    -.464662212189D-09  .100000000000D+01  .152000000000D+04  .000000000000D+00
     .240000000000D+01  .000000000000D+00 -.107102096081D-07  .600000000000D+02
     .194406000000D+06  .400000000000D+01
19 09  2 24  8  0  0.0  .318419188261D-04 -.682121026330D-12  .000000000000D+00
     .108000000000D+03 -.118437500000D+02  .437089635109D-08  .151634549916D+01
    -.368803739548D-06  .526441249531D-02  .116303563118D-04  .515357440376D+04
     .201600000000D+06  .800937414169D-07  .258578365981D+00  .465661287308D-07
     .957911707039D+00  .149781250000D+03 -.383884248331D+00 -.784425531615D-08
     .194650965137D-09  .100000000000D+01  .152000000000D+04  .000000000000D+00
     .340000000000D+01  .000000000000D+00 -.144354999065D-07  .108000000000D+03
     .194406000000D+06  .400000000000D+01
20 09  2 24  8  0  0.0  .898912549019D-04 -.113686837722D-11  .000000000000D+00
     .560000000000D+02 -.611250000000D+02  .500163690968D-08 -.266280368976D+01
    -.314600765705D-05  .399052165449D-02  .713020563126D-05  .515366533852D+04
     .201600000000D+06 -.558793544769D-08  .225873049022D+01 -.558793544769D-07
     .943090567988D+00  .232437500000D+03  .131652755217D+01 -.824105755884D-08
    -.482162941165D-09  .100000000000D+01  .152000000000D+04  .000000000000D+00
     .240000000000D+01  .000000000000D+00 -.651925802231D-08  .560000000000D+02
     .194406000000D+06  .400000000000D+01
21 09  2 24  8  0  0.0  .275084748864D-04 -.181898940355D-11  .000000000000D+00
     .740000000000D+02  .335625000000D+02  .539058168222D-08 -.153146264505D+01
     .155344605446D-05  .147054708796D-01  .425241887569D-05  .515363048935D+04
     .201600000000D+06  .143423676491D-06  .125354222576D+01 -.301748514175D-06
     .934230043300D+00  .280531250000D+03 -.264333941111D+01 -.843427989304D-08
     .393230665350D-09  .100000000000D+01  .152000000000D+04  .000000000000D+00
     .240000000000D+01  .000000000000D+00 -.116415321827D-07  .740000000000D+02
     .194406000000D+06  .400000000000D+01
22 09  2 24  8  0  0.0  .204543117434D-03 -.682121026330D-12  .000000000000D+00
     .530000000000D+02 -.552812500000D+02  .500770859116D-08  .235862535826D+01
    -.281818211079D-05  .486939086113D-02  .820681452751D-05  .515365974998D+04
     .201600000000D+06  .121071934700D-06  .231840446351D+01 -.558793544769D-07
     .941192127493D+00  .211750000000D+03 -.183019289701D+01 -.819176979152D-08
    -.482162941165D-09  .100000000000D+01  .152000000000D+04  .000000000000D+00
     .340000000000D+01  .000000000000D+00 -.181607902050D-07  .530000000000D+02
     .194406000000D+06  .400000000000D+01
23 09  2 24  8  0  0.0  .387489795685D-03  .568434188608D-12  .000000000000D+00
     .101000000000D+03  .576875000000D+02  .404195407790D-08  .987097518128D+00
     .309012830257D-05  .581094145309D-02  .118613243103D-04  .515364318657D+04
     .201600000000D+06  .109896063805D-06 -.295024741024D+01  .707805156708D-07
     .971127170613D+00  .156000000000D+03  .287828792699D+01 -.773496504948D-08
     .110004582132D-09  .100000000000D+01  .152000000000D+04  .000000000000D+00
     .340000000000D+01  .000000000000D+00 -.200234353542D-07  .101000000000D+03
     .194406000000D+06  .400000000000D+01
24 09  2 24  8  0  0.0  .168100465089D-03  .306954461848D-11  .000000000000D+00
     .510000000000D+02  .290625000000D+02  .506306803996D-08 -.290884879037D+01
     .145100057125D-05  .689969887026D-02  .470876693726D-05  .515366351128D+04
     .201600000000D+06  .335276126862D-07  .128413488274D+01  .707805156708D-07
     .950844785748D+00  .285093750000D+03 -.638990745444D+00 -.830177437365D-08
     .180007498035D-09  .100000000000D+01  .152000000000D+04  .000000000000D+00
     .240000000000D+01  .000000000000D+00 -.139698386192D-08  .510000000000D+02
     .194406000000D+06  .400000000000D+01
26 09  2 24  8  0  0.0  .468450598419D-04  .272848410532D-11  .000000000000D+00
     .480000000000D+02  .798437500000D+02  .364265173107D-08  .540439409665D+00
     .421702861786D-05  .196572788991D-01  .113211572170D-04  .515364811516D+04
     .201600000000D+06 -.234693288803D-06 -.290262754106D+01  .162050127983D-06
     .993399934523D+00  .182281250000D+03  .970394810416D+00 -.782568311397D-08
     .253581991279D-10  .100000000000D+01  .152000000000D+04  .000000000000D+00
     .240000000000D+01  .000000000000D+00 -.605359673500D-08  .480000000000D+02
     .194406000000D+06  .400000000000D+01
